STARLINK-4024           
1 52599U 22052B   26068.81406372  .00001183  00000+0  92431-4 0  9999
2 52599  53.2165 278.6679 0001267  89.5333 270.5804 15.08830158211678
LEMUR-2-UNTITLED-SC     
1 63351U 25061A   26068.89211098  .00005783  00000+0  33296-3 0  9990
2 63351  97.5556  45.0864 0017373 245.6030 114.3388 15.12695529 52577
